FLOCK 4H-13             
1 66716U 25276BC  26068.76587403  .00007871  00000+0  37410-3 0  9990
2 66716  97.4290 144.1574 0000071  66.7650 293.3593 15.19476350 15330
FLOCK 4H-16             
1 66719U 25276BF  26068.76528846  .00008452  00000+0  41273-3 0  9997
2 66719  97.4302 144.0218 0004158  10.1736 349.9581 15.18505927 15325
